<?xml version="1.0" encoding="UTF-8"?>
<gpx version="1.1" creator="gpx.studio"
xmlns="http://www.topografix.com/GPX/1/1">

<metadata>
  <name>Track_2026-03-30_1528</name>
</metadata>
 <wpt lat="37.51042663919797" lon="126.87101141225526">
    <name>양천둘레길</name>
  </wpt>
  <wpt lat="37.509818" lon="126.870836">
    <name>갈산공원 5-1</name>
  </wpt>
  <wpt lat="37.50961607994715" lon="126.87073245300866">
    <name>갈산공원 5-2</name>
  </wpt>
  <wpt lat="37.50944698" lon="126.87064382">
    <name>갈산공원 5-3</name>
  </wpt>
  <wpt lat="37.50922175418003" lon="126.87067941390421">
    <name>갈산공원 5-4</name>
  </wpt>
  <wpt lat="37.5090108" lon="126.87062899">
    <name>갈산공원 5-5</name>
  </wpt>
  <wpt lat="37.50884794" lon="126.87052863">
    <name>갈산공원 5-6</name>
  </wpt>
  <wpt lat="37.50865401" lon="126.87043216">
    <name>갈산공원 5-7</name>
  </wpt>
  <wpt lat="37.50844653" lon="126.87029139">
    <name>갈산공원 5-8</name>
  </wpt>
  <wpt lat="37.50827431" lon="126.87017999">
    <name>갈산공원 5-9</name>
  </wpt>
  <wpt lat="37.50807151" lon="126.87017724">
    <name>갈산공원 5-10</name>
  </wpt>
  <wpt lat="37.50784628" lon="126.87012508">
    <name>갈산공원 5-11</name>
  </wpt>
  <wpt lat="37.50771247" lon="126.86993087">
    <name>갈산공원 4-21</name>
  </wpt>
  <wpt lat="37.50753327" lon="126.86985345">
    <name>갈산공원 4-20</name>
  </wpt>
  <wpt lat="37.50733584" lon="126.86984533">
    <name>갈산공원 4-19</name>
  </wpt>
  <wpt lat="37.5071049" lon="126.86987739">
    <name>갈산공원 4-18</name>
  </wpt>
  <wpt lat="37.5069012" lon="126.86988523">
    <name>갈산공원 4-17</name>
  </wpt>
  <wpt lat="37.50667826" lon="126.86986429">
    <name>갈산공원 4-16</name>
  </wpt>
  <wpt lat="37.50647374" lon="126.86986298">
    <name>갈산공원 4-15</name>
  </wpt>
  <wpt lat="37.50637512" lon="126.8698235">
    <name>갈산 위치번호 4-8</name>
  </wpt>
  <wpt lat="37.50626836" lon="126.8697405">
    <name>갈산공원 4-14</name>
  </wpt>
  <wpt lat="37.50612366" lon="126.86956201">
    <name>갈산공원 4-13</name>
  </wpt>
  <wpt lat="37.50595858" lon="126.86943522">
    <name>갈산공원 4-12</name>
  </wpt>
  <wpt lat="37.50577197" lon="126.86930375">
    <name>갈산공원 4-11</name>
  </wpt>
  <wpt lat="37.50568578" lon="126.8690872">
    <name>갈산공원 4-10</name>
  </wpt>
  <wpt lat="37.50559882" lon="126.8688444">
    <name>갈산공원 4-9</name>
  </wpt>
  <wpt lat="37.50572578" lon="126.86862027">
    <name>갈산공원 4-8</name>
  </wpt>
  <wpt lat="37.50574658" lon="126.86841103">
    <name>갈산공원 4-7</name>
  </wpt>
  <wpt lat="37.5056221" lon="126.86820505">
    <name>갈산공원 4-6</name>
  </wpt>
  <wpt lat="37.50555571" lon="126.86795653">
    <name>갈산공원 4-5</name>
  </wpt>
  <wpt lat="37.50570782" lon="126.8677805">
    <name>갈산공원 4-4</name>
  </wpt>
  <wpt lat="37.50566635" lon="126.86754181">
    <name>갈산공원 4-3</name>
  </wpt>
  <wpt lat="37.50564763" lon="126.86726869">
    <name>갈산공원 4-2</name>
  </wpt>
  <wpt lat="37.505478" lon="126.86703697">
    <name>갈산공원 4-1</name>
  </wpt>
  <wpt lat="37.50536029" lon="126.8670007">
    <name>갈산공원 4-1-1</name>
  </wpt>
  <wpt lat="37.510224" lon="126.870962">
    <name>갈산공원 2-34</name>
  </wpt>
  <trk>
    <name>Track 2026-03-30 15:28</name>
    <trkseg>
      <trkpt lat="37.51062806733442" lon="126.8705027318806">
      </trkpt>
      <trkpt lat="37.51056005925054" lon="126.87087424795646">
      </trkpt>
      <trkpt lat="37.51056005925054" lon="126.87087424795646">
      </trkpt>
      <trkpt lat="37.51053172253087" lon="126.87098856059441">
      </trkpt>
      <trkpt lat="37.51053172253087" lon="126.87098856059441">
      </trkpt>
      <trkpt lat="37.5104508" lon="126.8710094">
      </trkpt>
      <trkpt lat="37.5104508" lon="126.8710094">
      </trkpt>
      <trkpt lat="37.5104508" lon="126.8710094">
      </trkpt>
      <trkpt lat="37.510191726437625" lon="126.87094788459854">
      </trkpt>
      <trkpt lat="37.510191726437625" lon="126.87094788459854">
      </trkpt>
      <trkpt lat="37.509931026922246" lon="126.87083833498588">
      </trkpt>
      <trkpt lat="37.509931026922246" lon="126.87083833498588">
      </trkpt>
      <trkpt lat="37.50986868559883" lon="126.87080499379857">
      </trkpt>
      <trkpt lat="37.50985686026422" lon="126.87086710962825">
      </trkpt>
      <trkpt lat="37.50985686026422" lon="126.87086710962825">
      </trkpt>
      <trkpt lat="37.50985686026422" lon="126.87086710962825">
      </trkpt>
      <trkpt lat="37.509691577018046" lon="126.8707800605107">
      </trkpt>
      <trkpt lat="37.509691577018046" lon="126.8707800605107">
      </trkpt>
      <trkpt lat="37.5094659" lon="126.8706607">
      </trkpt>
      <trkpt lat="37.5094659" lon="126.8706607">
      </trkpt>
      <trkpt lat="37.5093675" lon="126.8706571">
      </trkpt>
      <trkpt lat="37.5092742" lon="126.8706672">
      </trkpt>
      <trkpt lat="37.5091852" lon="126.8707022">
      </trkpt>
      <trkpt lat="37.5090968" lon="126.8706627">
      </trkpt>
      <trkpt lat="37.5090108" lon="126.8706289">
      </trkpt>
      <trkpt lat="37.5089226" lon="126.8705945">
      </trkpt>
      <trkpt lat="37.5088484" lon="126.8705292">
      </trkpt>
      <trkpt lat="37.5087577" lon="126.8704891">
      </trkpt>
      <trkpt lat="37.5086716" lon="126.870448">
      </trkpt>
      <trkpt lat="37.5085885" lon="126.8703854">
      </trkpt>
      <trkpt lat="37.508503" lon="126.8703431">
      </trkpt>
      <trkpt lat="37.5084303" lon="126.8702743">
      </trkpt>
      <trkpt lat="37.5083593" lon="126.8702043">
      </trkpt>
      <trkpt lat="37.5082669" lon="126.8701801">
      </trkpt>
      <trkpt lat="37.5081708" lon="126.870186">
      </trkpt>
      <trkpt lat="37.5080802" lon="126.8701809">
      </trkpt>
      <trkpt lat="37.5079881" lon="126.8701556">
      </trkpt>
      <trkpt lat="37.5078966" lon="126.8701496">
      </trkpt>
      <trkpt lat="37.5078074" lon="126.8701044">
      </trkpt>
      <trkpt lat="37.50774" lon="126.8700161">
      </trkpt>
      <trkpt lat="37.5076842" lon="126.8699209">
      </trkpt>
      <trkpt lat="37.507595" lon="126.8698982">
      </trkpt>
      <trkpt lat="37.5075094" lon="126.8698321">
      </trkpt>
      <trkpt lat="37.5074154" lon="126.8698322">
      </trkpt>
      <trkpt lat="37.5073222" lon="126.8698542">
      </trkpt>
      <trkpt lat="37.5072239" lon="126.8698406">
      </trkpt>
      <trkpt lat="37.5071331" lon="126.8698585">
      </trkpt>
      <trkpt lat="37.5070386" lon="126.8698944">
      </trkpt>
      <trkpt lat="37.5069468" lon="126.8698878">
      </trkpt>
      <trkpt lat="37.50685" lon="126.8698819">
      </trkpt>
      <trkpt lat="37.5067545" lon="126.8698703">
      </trkpt>
      <trkpt lat="37.5066617" lon="126.8698692">
      </trkpt>
      <trkpt lat="37.5065671" lon="126.8698594">
      </trkpt>
      <trkpt lat="37.5064737" lon="126.8698629">
      </trkpt>
      <trkpt lat="37.506384" lon="126.8698337">
      </trkpt>
      <trkpt lat="37.5063024" lon="126.8697816">
      </trkpt>
      <trkpt lat="37.5062262" lon="126.8697068">
      </trkpt>
      <trkpt lat="37.5061498" lon="126.8696336">
      </trkpt>
      <trkpt lat="37.506112" lon="126.8695238">
      </trkpt>
      <trkpt lat="37.5060544" lon="126.8694348">
      </trkpt>
      <trkpt lat="37.5059577" lon="126.8694237">
      </trkpt>
      <trkpt lat="37.5058645" lon="126.8694087">
      </trkpt>
      <trkpt lat="37.5057825" lon="126.8693501">
      </trkpt>
      <trkpt lat="37.5057499" lon="126.8692425">
      </trkpt>
      <trkpt lat="37.5057039" lon="126.8691395">
      </trkpt>
      <trkpt lat="37.5056593" lon="126.8690338">
      </trkpt>
      <trkpt lat="37.5056108" lon="126.8689273">
      </trkpt>
      <trkpt lat="37.5056037" lon="126.868814">
      </trkpt>
      <trkpt lat="37.5056599" lon="126.8687142">
      </trkpt>
      <trkpt lat="37.5057257" lon="126.8686202">
      </trkpt>
      <trkpt lat="37.5057847" lon="126.8685224">
      </trkpt>
      <trkpt lat="37.505751" lon="126.8684133">
      </trkpt>
      <trkpt lat="37.5056894" lon="126.868329">
      </trkpt>
      <trkpt lat="37.505634" lon="126.8682321">
      </trkpt>
      <trkpt lat="37.5055808" lon="126.8681254">
      </trkpt>
      <trkpt lat="37.5055343" lon="126.8680192">
      </trkpt>
      <trkpt lat="37.5055745" lon="126.8679085">
      </trkpt>
      <trkpt lat="37.5056449" lon="126.8678314">
      </trkpt>
      <trkpt lat="37.5057254" lon="126.8677694">
      </trkpt>
      <trkpt lat="37.5057071" lon="126.8676529">
      </trkpt>
      <trkpt lat="37.5056698" lon="126.8675497">
      </trkpt>
      <trkpt lat="37.5056156" lon="126.8674587">
      </trkpt>
      <trkpt lat="37.5056399" lon="126.8673419">
      </trkpt>
      <trkpt lat="37.5056427" lon="126.8672254">
      </trkpt>
      <trkpt lat="37.5055754" lon="126.8671438">
      </trkpt>
      <trkpt lat="37.5055051" lon="126.867065">
      </trkpt>
      <trkpt lat="37.50543911987509" lon="126.86702624354136">
      </trkpt>
      <trkpt lat="37.50543911987509" lon="126.86702624354136">
      </trkpt>
      <trkpt lat="37.505290153302155" lon="126.86695370617474">
      </trkpt>
    </trkseg>
  </trk>

<metadata>
  <name>Track_2026-03-30_1618</name>
</metadata>
<wpt lat="37.50519738951344" lon="126.8674409328791">
    <name>시작</name>
  </wpt>
  <wpt lat="37.50545035" lon="126.86758531">
    <name>갈산공원 공원등 20-40</name>
  </wpt>
  <wpt lat="37.50555521" lon="126.86731527">
    <name>갈산공원 공원등 20-39</name>
  </wpt>
  <wpt lat="37.50560358" lon="126.86711912">
    <name>갈산공원 공원등 20-38</name>
  </wpt>
  <wpt lat="37.505576" lon="126.866834">
    <name>갈산공원 공원등20-37(갈산공원 4-22)</name>
  </wpt>
  <wpt lat="37.50586667" lon="126.86697061">
    <name>갈산공원 3-20</name>
  </wpt>
  <wpt lat="37.50597601" lon="126.86724396">
    <name>갈산공원 3-19</name>
  </wpt>
  <wpt lat="37.50609942" lon="126.86752504">
    <name>갈산공원 3-18</name>
  </wpt>
  <wpt lat="37.50628193" lon="126.86770176">
    <name>갈산공원 3-17</name>
  </wpt>
  <trk>
    <name>Track 2026-03-30 16:18</name>
    <trkseg>
      <trkpt lat="37.50520347099051" lon="126.86744067837986">
      </trkpt>
      <trkpt lat="37.50536160924644" lon="126.86750013076166">
      </trkpt>
      <trkpt lat="37.50536160924644" lon="126.86750013076166">
      </trkpt>
      <trkpt lat="37.50536160924644" lon="126.86750013076166">
      </trkpt>
      <trkpt lat="37.50539867143971" lon="126.86752160552135">
      </trkpt>
      <trkpt lat="37.50539867143971" lon="126.86752160552135">
      </trkpt>
      <trkpt lat="37.50547675147719" lon="126.86752926078935">
      </trkpt>
      <trkpt lat="37.5055978" lon="126.8672271">
      </trkpt>
      <trkpt lat="37.5055978" lon="126.8672271">
      </trkpt>
      <trkpt lat="37.5055978" lon="126.8672271">
      </trkpt>
      <trkpt lat="37.50561241127332" lon="126.86710392154185">
      </trkpt>
      <trkpt lat="37.50558345365005" lon="126.86688185336067">
      </trkpt>
      <trkpt lat="37.50558345365005" lon="126.86688185336067">
      </trkpt>
      <trkpt lat="37.50558345365005" lon="126.86688185336067">
      </trkpt>
      <trkpt lat="37.50562683135105" lon="126.86681076870883">
      </trkpt>
      <trkpt lat="37.50562683135105" lon="126.86681076870883">
      </trkpt>
      <trkpt lat="37.505652104736015" lon="126.86680951358682">
      </trkpt>
      <trkpt lat="37.505652104736015" lon="126.86680951358682">
      </trkpt>
      <trkpt lat="37.50568350173445" lon="126.86682360069125">
      </trkpt>
      <trkpt lat="37.5057248648539" lon="126.86684685775623">
      </trkpt>
      <trkpt lat="37.5057248648539" lon="126.86684685775623">
      </trkpt>
      <trkpt lat="37.5057248648539" lon="126.86684685775623">
      </trkpt>
      <trkpt lat="37.50579947409166" lon="126.86689169463358">
      </trkpt>
      <trkpt lat="37.50579947409166" lon="126.86689169463358">
      </trkpt>
      <trkpt lat="37.50587408350651" lon="126.86699011953499">
      </trkpt>
      <trkpt lat="37.50587408350651" lon="126.86699011953499">
      </trkpt>
      <trkpt lat="37.50597699304966" lon="126.86725805401403">
      </trkpt>
      <trkpt lat="37.5060374" lon="126.8674678">
      </trkpt>
      <trkpt lat="37.5060374" lon="126.8674678">
      </trkpt>
      <trkpt lat="37.5061093" lon="126.8675474">
      </trkpt>
      <trkpt lat="37.5061857" lon="126.8676167">
      </trkpt>
      <trkpt lat="37.5062599" lon="126.8676855">
      </trkpt>
      <trkpt lat="37.5063415" lon="126.8677366">
      </trkpt>
      <trkpt lat="37.5064213" lon="126.8677925">
      </trkpt>
      <trkpt lat="37.50644049962123" lon="126.86780779822035">
      </trkpt>
      <trkpt lat="37.50644049962123" lon="126.86780779822035">
      </trkpt>
      <trkpt lat="37.50647937050205" lon="126.86784530822672">
      </trkpt>
    </trkseg>
  </trk>

<metadata>
  <name>Track_2026-03-30_1645</name>
</metadata>
<trk>
    <name>Track 2026-03-30 16:45</name>
    <trkseg>
      <trkpt lat="37.505467" lon="126.8675962">
      </trkpt>
    </trkseg>
  </trk>

<metadata>
  <name>Track_2026-03-30_1646</name>
</metadata>
<wpt lat="37.50534824" lon="126.86778906">
    <name>공원등 20-41</name>
  </wpt>
  <wpt lat="37.5053281313906" lon="126.86783921972773">
    <name>갈산 위치번호 4-12</name>
  </wpt>
  <wpt lat="37.50528114" lon="126.86805405">
    <name>공원등 20-42</name>
  </wpt>
  <wpt lat="37.50539257179585" lon="126.86833617426146">
    <name>공원등 20-43</name>
  </wpt>
  <wpt lat="37.50524834" lon="126.86862084">
    <name>공원등 20-44</name>
  </wpt>
  <wpt lat="37.50562012844567" lon="126.86905503083864">
    <name>갈산 위치번호 4-10</name>
  </wpt>
  <trk>
    <name>Track 2026-03-30 16:46</name>
    <trkseg>
      <trkpt lat="37.50546923862346" lon="126.86753188186327">
      </trkpt>
      <trkpt lat="37.505503027727094" lon="126.86762582225877">
      </trkpt>
      <trkpt lat="37.505503027727094" lon="126.86762582225877">
      </trkpt>
      <trkpt lat="37.5054907" lon="126.8677019">
      </trkpt>
      <trkpt lat="37.5054077" lon="126.8677555">
      </trkpt>
      <trkpt lat="37.5053335" lon="126.8678211">
      </trkpt>
      <trkpt lat="37.5052742" lon="126.8679151">
      </trkpt>
      <trkpt lat="37.5052746" lon="126.8680295">
      </trkpt>
      <trkpt lat="37.5053035" lon="126.8681409">
      </trkpt>
      <trkpt lat="37.5053609" lon="126.8682353">
      </trkpt>
      <trkpt lat="37.5053941" lon="126.8683414">
      </trkpt>
      <trkpt lat="37.5053748" lon="126.8684531">
      </trkpt>
      <trkpt lat="37.505301" lon="126.8685337">
      </trkpt>
      <trkpt lat="37.5052433" lon="126.8686218">
      </trkpt>
      <trkpt lat="37.5052291" lon="126.8687399">
      </trkpt>
      <trkpt lat="37.5052291" lon="126.8687399">
      </trkpt>
      <trkpt lat="37.5055183696866" lon="126.86893293923265">
      </trkpt>
      <trkpt lat="37.505647361263144" lon="126.86909053856084">
      </trkpt>
      <trkpt lat="37.505647361263144" lon="126.86909053856084">
      </trkpt>
      <trkpt lat="37.50567712851867" lon="126.86913806851737">
      </trkpt>
      <trkpt lat="37.50567712851867" lon="126.86913806851737">
      </trkpt>
      <trkpt lat="37.50569140713447" lon="126.86923047889432">
      </trkpt>
      <trkpt lat="37.50569140713447" lon="126.86923047889432">
      </trkpt>
      <trkpt lat="37.5056913" lon="126.8692346">
      </trkpt>
      <trkpt lat="37.505634" lon="126.8693285">
      </trkpt>
      <trkpt lat="37.50567" lon="126.8694346">
      </trkpt>
      <trkpt lat="37.5057572" lon="126.8694719">
      </trkpt>
      <trkpt lat="37.5058469" lon="126.8695208">
      </trkpt>
      <trkpt lat="37.50594" lon="126.8695637">
      </trkpt>
      <trkpt lat="37.5060175" lon="126.8696225">
      </trkpt>
      <trkpt lat="37.5061004" lon="126.8696835">
      </trkpt>
      <trkpt lat="37.5061884" lon="126.8697314">
      </trkpt>
      <trkpt lat="37.50622969328111" lon="126.86976450626132">
      </trkpt>
      <trkpt lat="37.50622969328111" lon="126.86976450626132">
      </trkpt>
      <trkpt lat="37.50629982729745" lon="126.86981890845169">
      </trkpt>
      <trkpt lat="37.50629982729745" lon="126.86981890845169">
      </trkpt>
      <trkpt lat="37.5063280504457" lon="126.86981202549595">
      </trkpt>
    </trkseg>
  </trk>

<metadata>
  <name>Track_2026-03-30_1794</name>
</metadata>
<wpt lat="37.5091195" lon="126.87061695">
    <name>갈산 위치번호 4-5</name>
  </wpt>
  <trk>
    <name>Track 2026-03-30 17:04</name>
    <trkseg>
      <trkpt lat="37.507981618536675" lon="126.87015684942253">
      </trkpt>
      <trkpt lat="37.50799595115869" lon="126.87019298503822">
      </trkpt>
      <trkpt lat="37.50799595115869" lon="126.87019298503822">
      </trkpt>
      <trkpt lat="37.508033870376366" lon="126.87020293970913">
      </trkpt>
      <trkpt lat="37.508033870376366" lon="126.87020293970913">
      </trkpt>
      <trkpt lat="37.5080614" lon="126.8702204">
      </trkpt>
      <trkpt lat="37.5081509" lon="126.8702348">
      </trkpt>
      <trkpt lat="37.5082445" lon="126.8702385">
      </trkpt>
      <trkpt lat="37.5083338" lon="126.8702673">
      </trkpt>
      <trkpt lat="37.5084106" lon="126.8703385">
      </trkpt>
      <trkpt lat="37.508496818428206" lon="126.87033792712008">
      </trkpt>
      <trkpt lat="37.508496818428206" lon="126.87033792712008">
      </trkpt>
      <trkpt lat="37.508530756483935" lon="126.87033045422214">
      </trkpt>
      <trkpt lat="37.508530756483935" lon="126.87033045422214">
      </trkpt>
      <trkpt lat="37.50860759336447" lon="126.87036538280302">
      </trkpt>
      <trkpt lat="37.50860759336447" lon="126.87036538280302">
      </trkpt>
      <trkpt lat="37.5086831" lon="126.8703837">
      </trkpt>
      <trkpt lat="37.5087663" lon="126.8704289">
      </trkpt>
      <trkpt lat="37.5088525" lon="126.8704635">
      </trkpt>
      <trkpt lat="37.5089452" lon="126.870495">
      </trkpt>
      <trkpt lat="37.5090323" lon="126.8705326">
      </trkpt>
      <trkpt lat="37.5091032" lon="126.8706096">
      </trkpt>
      <trkpt lat="37.50915771012878" lon="126.87064223019311">
      </trkpt>
      <trkpt lat="37.50915771012878" lon="126.87064223019311">
      </trkpt>
      <trkpt lat="37.50918801976343" lon="126.87067901834706">
      </trkpt>
      <trkpt lat="37.50918801976343" lon="126.87067901834706">
      </trkpt>
      <trkpt lat="37.50922107882771" lon="126.87066039752352">
      </trkpt>
      <trkpt lat="37.50922107882771" lon="126.87066039752352">
      </trkpt>
      <trkpt lat="37.50940033544984" lon="126.87055504129955">
      </trkpt>
    </trkseg>
  </trk>

<metadata>
  <name>Track_2026-03-30_1716</name>
</metadata>
<trk>
    <name>Track 2026-03-30 17:16</name>
    <trkseg>
      <trkpt lat="37.50921270214769" lon="126.87069367796141">
      </trkpt>
      <trkpt lat="37.50923390963005" lon="126.87071339817899">
      </trkpt>
      <trkpt lat="37.50923390963005" lon="126.87071339817899">
      </trkpt>
      <trkpt lat="37.5092682" lon="126.8707322">
      </trkpt>
      <trkpt lat="37.5093254" lon="126.8708271">
      </trkpt>
      <trkpt lat="37.509389" lon="126.8709116">
      </trkpt>
      <trkpt lat="37.5094656" lon="126.8709805">
      </trkpt>
      <trkpt lat="37.5095521" lon="126.8710419">
      </trkpt>
      <trkpt lat="37.5096398" lon="126.8710977">
      </trkpt>
      <trkpt lat="37.5097295" lon="126.8711155">
      </trkpt>
      <trkpt lat="37.5098209" lon="126.8711256">
      </trkpt>
      <trkpt lat="37.5099131" lon="126.8711266">
      </trkpt>
      <trkpt lat="37.5100072" lon="126.8711481">
      </trkpt>
      <trkpt lat="37.5101007" lon="126.8711714">
      </trkpt>
      <trkpt lat="37.5101909" lon="126.8711521">
      </trkpt>
      <trkpt lat="37.5102777" lon="126.8710964">
      </trkpt>
      <trkpt lat="37.510339816578586" lon="126.87106806367314">
      </trkpt>
      <trkpt lat="37.510339816578586" lon="126.87106806367314">
      </trkpt>
      <trkpt lat="37.51045237965748" lon="126.87101713875637">
      </trkpt>
    </trkseg>
  </trk>

<metadata>
  <name>Track_2026-03-30_1738</name>
</metadata>
<trk>
    <name>Track 2026-03-30 17:38</name>
    <trkseg>
      <trkpt lat="37.505277974254014" lon="126.86857181785513">
      </trkpt>
      <trkpt lat="37.5053101076351" lon="126.8686718917798">
      </trkpt>
      <trkpt lat="37.5053101076351" lon="126.8686718917798">
      </trkpt>
      <trkpt lat="37.505302" lon="126.8688032">
      </trkpt>
    </trkseg>
  </trk>

<metadata>
  <name>Track_2026-03-30_1741</name>
</metadata>
<wpt lat="37.5063874" lon="126.86820852">
    <name>갈산 위치번호 4-11</name>
  </wpt>
  <trk>
    <name>Track 2026-03-30 17:41</name>
    <trkseg>
      <trkpt lat="37.505340528000175" lon="126.86781631316711">
      </trkpt>
      <trkpt lat="37.505359725156566" lon="126.86786532608119">
      </trkpt>
      <trkpt lat="37.505359725156566" lon="126.86786532608119">
      </trkpt>
      <trkpt lat="37.50537635099817" lon="126.86787555246589">
      </trkpt>
      <trkpt lat="37.50537635099817" lon="126.86787555246589">
      </trkpt>
      <trkpt lat="37.5054569" lon="126.8678966">
      </trkpt>
      <trkpt lat="37.5055283" lon="126.8679658">
      </trkpt>
      <trkpt lat="37.5056173" lon="126.8679899">
      </trkpt>
      <trkpt lat="37.5057063" lon="126.8680255">
      </trkpt>
      <trkpt lat="37.505794" lon="126.8680602">
      </trkpt>
      <trkpt lat="37.5058837" lon="126.8680918">
      </trkpt>
      <trkpt lat="37.5059805" lon="126.8681044">
      </trkpt>
      <trkpt lat="37.5060783" lon="126.8681226">
      </trkpt>
      <trkpt lat="37.5061579" lon="126.868179">
      </trkpt>
      <trkpt lat="37.5062573" lon="126.8681879">
      </trkpt>
      <trkpt lat="37.5063429" lon="126.8682238">
      </trkpt>
      <trkpt lat="37.5064428" lon="126.8682271">
      </trkpt>
      <trkpt lat="37.5065346" lon="126.8682675">
      </trkpt>
      <trkpt lat="37.5066292" lon="126.8682849">
      </trkpt>
    </trkseg>
  </trk>

<metadata>
  <name>Track_2026-03-30_1502</name>
</metadata>
<wpt lat="37.51055988103511" lon="126.87049528672424">
    <name>입구</name>
  </wpt>
  <wpt lat="37.51050406960745" lon="126.87062920433232">
    <name>갈산공원 2-3</name>
  </wpt>
  <wpt lat="37.51037466542182" lon="126.87058215992522">
    <name>갈산공원 2-4</name>
  </wpt>
  <wpt lat="37.51025699" lon="126.87063062">
    <name>갈산공원 2-5</name>
  </wpt>
  <wpt lat="37.51022072" lon="126.87052559">
    <name>갈산공원 2-6</name>
  </wpt>
  <wpt lat="37.510081340177976" lon="126.87067975753143">
    <name>갈산공원 5-12</name>
  </wpt>
  <wpt lat="37.510027" lon="126.870812">
    <name>갈산공원 5-13</name>
  </wpt>
  <wpt lat="37.50994856" lon="126.87083921">
    <name>갈산공원 2-33</name>
  </wpt>
  <wpt lat="37.50972743588922" lon="126.87073750955722">
    <name>갈산공원 2-32</name>
  </wpt>
  <wpt lat="37.50942358" lon="126.87056257">
    <name>갈산공원 2-31</name>
  </wpt>
  <wpt lat="37.50918332082678" lon="126.8704139196256">
    <name>갈산공원 2-30</name>
  </wpt>
  <wpt lat="37.50888065" lon="126.87025473">
    <name>갈산공원 2-29</name>
  </wpt>
  <wpt lat="37.50883322" lon="126.87023934">
    <name>갈산 위치번호 4-6</name>
  </wpt>
  <wpt lat="37.50864719" lon="126.8700879">
    <name>갈산공원 2-28</name>
  </wpt>
  <wpt lat="37.5083594303464" lon="126.87000009952334">
    <name>갈산공원 2-27</name>
  </wpt>
  <wpt lat="37.50810131" lon="126.86993566">
    <name>갈산공원 2-26</name>
  </wpt>
  <wpt lat="37.50807378806233" lon="126.86992887710176">
    <name>갈산 위치번호 4-7</name>
  </wpt>
  <wpt lat="37.5078272" lon="126.86982026">
    <name>갈산공원 2-25</name>
  </wpt>
  <wpt lat="37.5076352" lon="126.86962353">
    <name>갈산공원 3-1</name>
  </wpt>
  <wpt lat="37.50740737" lon="126.86936941">
    <name>갈산공원 3-2</name>
  </wpt>
  <wpt lat="37.50713732" lon="126.86923004">
    <name>갈산공원 3-3</name>
  </wpt>
  <wpt lat="37.50695954" lon="126.86902515">
    <name>갈산공원 3-4</name>
  </wpt>
  <wpt lat="37.50681805" lon="126.86877351">
    <name>갈산공원 3-8</name>
  </wpt>
  <wpt lat="37.50675849744614" lon="126.86860077142273">
    <name>갈산공원 3-9</name>
  </wpt>
  <wpt lat="37.506913" lon="126.868421">
    <name>갈산공원 3-11</name>
  </wpt>
  <wpt lat="37.50705774" lon="126.86866074">
    <name>갈산공원 3-10</name>
  </wpt>
  <wpt lat="37.50699546063356" lon="126.86878909053473">
    <name>갈산공원 CCTV 관리번호 공원 167</name>
  </wpt>
  <wpt lat="37.50665114" lon="126.8683462">
    <name>갈산공원 3-12</name>
  </wpt>
  <wpt lat="37.50653027" lon="126.86807998">
    <name>갈산공원 3-13</name>
  </wpt>
  <wpt lat="37.506472" lon="126.867892">
    <name>갈산공원 3-14</name>
  </wpt>
  <wpt lat="37.50647908" lon="126.86777252">
    <name>갈산 위치번호 4-2</name>
  </wpt>
  <wpt lat="37.50642936" lon="126.86751568">
    <name>갈산공원 3-15</name>
  </wpt>
  <wpt lat="37.50642409" lon="126.86727698">
    <name>갈산공원 3-16</name>
  </wpt>
  <wpt lat="37.5063845" lon="126.8671342">
    <name>갈산 위치번호 4-1</name>
  </wpt>
  <wpt lat="37.50567955" lon="126.86681316">
    <name>갈산공원 3-21</name>
  </wpt>
  <wpt lat="37.50550364" lon="126.86678091">
    <name>갈산공원 4-23</name>
  </wpt>
  <wpt lat="37.505342504185464" lon="126.86680380369711">
    <name>갈산공원 4-1-2</name>
  </wpt>
  <trk>
    <name>Track 2026-03-31 10:52</name>
    <trkseg>
      <trkpt lat="37.505340787025204" lon="126.86678648699785">
      </trkpt>
      <trkpt lat="37.50544038223185" lon="126.86674968900928">
      </trkpt>
      <trkpt lat="37.50544038223185" lon="126.86674968900928">
      </trkpt>
      <trkpt lat="37.50544038223185" lon="126.86674968900928">
      </trkpt>
      <trkpt lat="37.505564017476715" lon="126.86676051194684">
      </trkpt>
      <trkpt lat="37.505564017476715" lon="126.86676051194684">
      </trkpt>
      <trkpt lat="37.50580270160535" lon="126.86688389343578">
      </trkpt>
      <trkpt lat="37.50591897703448" lon="126.86687189903023">
      </trkpt>
      <trkpt lat="37.50591897703448" lon="126.86687189903023">
      </trkpt>
      <trkpt lat="37.50622684336753" lon="126.8667455446053">
      </trkpt>
      <trkpt lat="37.506309179497094" lon="126.86679969650203">
      </trkpt>
      <trkpt lat="37.50640589838491" lon="126.86718745283287">
      </trkpt>
      <trkpt lat="37.5064397159242" lon="126.86755513436196">
      </trkpt>
      <trkpt lat="37.50649616598673" lon="126.86792590285893">
      </trkpt>
      <trkpt lat="37.50656477774616" lon="126.86819078091833">
      </trkpt>
      <trkpt lat="37.50668913639913" lon="126.86841241358132">
      </trkpt>
      <trkpt lat="37.50680063018805" lon="126.8685259327491">
      </trkpt>
    </trkseg>
  </trk>

<metadata>
  <name>Track_2026-03-30_1222</name>
</metadata>
<wpt lat="37.50616253" lon="126.86888436">
    <name>갈산 위치번호 4-9</name>
  </wpt>
  <wpt lat="37.50620253652434" lon="126.86891294074803">
    <name>갈산공원 3-7</name>
  </wpt>
  <wpt lat="37.50643973" lon="126.86900866">
    <name>갈산공원 3-6</name>
  </wpt>
  <trk>
    <name>Track 2026-03-31 12:22</name>
    <trkseg>
      <trkpt lat="37.505722194660876" lon="126.8691847841149">
      </trkpt>
      <trkpt lat="37.50575458251985" lon="126.8691976978937">
      </trkpt>
      <trkpt lat="37.50575458251985" lon="126.8691976978937">
      </trkpt>
      <trkpt lat="37.5058054" lon="126.8692094">
      </trkpt>
      <trkpt lat="37.5058971" lon="126.8692021">
      </trkpt>
      <trkpt lat="37.5059532" lon="126.8691133">
      </trkpt>
      <trkpt lat="37.5060313" lon="126.8690519">
      </trkpt>
      <trkpt lat="37.5060882" lon="126.8689577">
      </trkpt>
      <trkpt lat="37.5061564" lon="126.8688826">
      </trkpt>
      <trkpt lat="37.5062475" lon="126.8689277">
      </trkpt>
      <trkpt lat="37.5063234" lon="126.8689887">
      </trkpt>
      <trkpt lat="37.5064148" lon="126.8690207">
      </trkpt>
      <trkpt lat="37.5065021" lon="126.8689708">
      </trkpt>
      <trkpt lat="37.5065878" lon="126.8689155">
      </trkpt>
      <trkpt lat="37.5066734" lon="126.8688521">
      </trkpt>
      <trkpt lat="37.506696168306235" lon="126.86883406928503">
      </trkpt>
      <trkpt lat="37.506696168306235" lon="126.86883406928503">
      </trkpt>
      <trkpt lat="37.506740878629344" lon="126.86877542980022">
      </trkpt>
      <trkpt lat="37.506788875732326" lon="126.86871268438694">
      </trkpt>
    </trkseg>
  </trk>

<metadata>
  <name>Track_2026-03-30_1233</name>
</metadata>
 <wpt lat="37.506746" lon="126.869088">
    <name>갈산공원 3-5</name>
  </wpt>
  <trk>
    <name>Track 2026-03-31 12:33</name>
    <trkseg>
      <trkpt lat="37.50647320425627" lon="126.86898921125044">
      </trkpt>
      <trkpt lat="37.50654626443821" lon="126.8690166670153">
      </trkpt>
      <trkpt lat="37.50654626443821" lon="126.8690166670153">
      </trkpt>
      <trkpt lat="37.5065902" lon="126.8690383">
      </trkpt>
      <trkpt lat="37.5066856" lon="126.8690714">
      </trkpt>
      <trkpt lat="37.5067725" lon="126.8691208">
      </trkpt>
      <trkpt lat="37.5068656" lon="126.8690964">
      </trkpt>
      <trkpt lat="37.50692298997135" lon="126.86907666830703">
      </trkpt>
      <trkpt lat="37.50692298997135" lon="126.86907666830703">
      </trkpt>
      <trkpt lat="37.50698483056131" lon="126.86905758692814">
      </trkpt>
    </trkseg>
  </trk>

<metadata>
  <name>Track_2026-03-30_1241</name>
</metadata>
<trk>
    <name>Track 2026-03-31 12:41</name>
    <trkseg>
      <trkpt lat="37.5061545" lon="126.8688802">
      </trkpt>
      <trkpt lat="37.5062056" lon="126.868787">
      </trkpt>
      <trkpt lat="37.5062906" lon="126.8687422">
      </trkpt>
      <trkpt lat="37.5063721" lon="126.8686828">
      </trkpt>
      <trkpt lat="37.5064207" lon="126.8685804">
      </trkpt>
      <trkpt lat="37.5064048" lon="126.8684638">
      </trkpt>
      <trkpt lat="37.5063646" lon="126.8683504">
      </trkpt>
      <trkpt lat="37.5063431" lon="126.8682343">
      </trkpt>
      <trkpt lat="37.5063904" lon="126.868136">
      </trkpt>
      <trkpt lat="37.5064481" lon="126.86804">
      </trkpt>
      <trkpt lat="37.50647319949881" lon="126.86800556662509">
      </trkpt>
      <trkpt lat="37.50647319949881" lon="126.86800556662509">
      </trkpt>
      <trkpt lat="37.506502215792224" lon="126.86796290153586">
      </trkpt>
    </trkseg>
  </trk>

<metadata>
  <name>Track_2026-03-30_1247</name>
</metadata>
 <trk>
    <name>Track 2026-03-31 12:47</name>
    <trkseg>
      <trkpt lat="37.5062353" lon="126.8681833">
      </trkpt>
      <trkpt lat="37.5062811" lon="126.8680758">
      </trkpt>
      <trkpt lat="37.5063525" lon="126.8679991">
      </trkpt>
      <trkpt lat="37.506405791371186" lon="126.8679456665185">
      </trkpt>
      <trkpt lat="37.506405791371186" lon="126.8679456665185">
      </trkpt>
      <trkpt lat="37.50648360068793" lon="126.86787575483783">
      </trkpt>
    </trkseg>
  </trk>

<metadata>
  <name>Track_2026-03-30_1253</name>
</metadata>
<trk>
    <name>Track 2026-03-31 12:53</name>
    <trkseg>
      <trkpt lat="37.50608136206229" lon="126.86752349714249">
      </trkpt>
      <trkpt lat="37.506080761045396" lon="126.86757404907523">
      </trkpt>
      <trkpt lat="37.506080761045396" lon="126.86757404907523">
      </trkpt>
      <trkpt lat="37.5060965" lon="126.8676659">
      </trkpt>
      <trkpt lat="37.5061264" lon="126.8677843">
      </trkpt>
      <trkpt lat="37.5060827" lon="126.8678894">
      </trkpt>
      <trkpt lat="37.5060174" lon="126.8679741">
      </trkpt>
      <trkpt lat="37.505981" lon="126.8680794">
      </trkpt>
    </trkseg>
  </trk>

<metadata>
  <name>Track_2026-03-30_1256</name>
</metadata>
 <trk>
    <name>Track 2026-03-31 12:56</name>
    <trkseg>
      <trkpt lat="37.505977493238234" lon="126.86809413641873">
      </trkpt>
      <trkpt lat="37.50600194735548" lon="126.86815372472248">
      </trkpt>
      <trkpt lat="37.50600194735548" lon="126.86815372472248">
      </trkpt>
      <trkpt lat="37.50604102979833" lon="126.86822874060906">
      </trkpt>
      <trkpt lat="37.50604102979833" lon="126.86822874060906">
      </trkpt>
      <trkpt lat="37.5060615" lon="126.868274">
      </trkpt>
      <trkpt lat="37.5061134" lon="126.8683738">
      </trkpt>
      <trkpt lat="37.5061402" lon="126.8684834">
      </trkpt>
      <trkpt lat="37.5061382" lon="126.8685998">
      </trkpt>
      <trkpt lat="37.5060985" lon="126.8687117">
      </trkpt>
      <trkpt lat="37.506007" lon="126.8687239">
      </trkpt>
      <trkpt lat="37.50599567343829" lon="126.86877803712544">
      </trkpt>
      <trkpt lat="37.50599567343829" lon="126.86877803712544">
      </trkpt>
      <trkpt lat="37.50596698855618" lon="126.86885886346602">
      </trkpt>
    </trkseg>
  </trk>

<metadata>
  <name>Track_2026-03-30_1305</name>
</metadata>
 <trk>
    <name>Track 2026-03-31 13:05</name>
    <trkseg>
      <trkpt lat="37.5056108069295" lon="126.86880333465308">
      </trkpt>
      <trkpt lat="37.50565486430139" lon="126.86881515352822">
      </trkpt>
      <trkpt lat="37.50565486430139" lon="126.86881515352822">
      </trkpt>
      <trkpt lat="37.5057223" lon="126.8688217">
      </trkpt>
      <trkpt lat="37.5058153" lon="126.8688371">
      </trkpt>
      <trkpt lat="37.5059038" lon="126.8688837">
      </trkpt>
      <trkpt lat="37.505991" lon="126.868844">
      </trkpt>
      <trkpt lat="37.50602441516815" lon="126.8688618695024">
      </trkpt>
      <trkpt lat="37.50602441516815" lon="126.8688618695024">
      </trkpt>
      <trkpt lat="37.50613803477998" lon="126.86889268566563">
      </trkpt>
    </trkseg>
  </trk>

<metadata>
  <name>Track_2026-03-30_1335</name>
</metadata>
<wpt lat="37.50672246" lon="126.8680846">
    <name>갈산공원 1-22</name>
  </wpt>
  <wpt lat="37.50700561" lon="126.86822883">
    <name>갈산공원 1-21</name>
  </wpt>
  <wpt lat="37.50729431" lon="126.86823112">
    <name>갈산공원 1-20</name>
  </wpt>
  <wpt lat="37.50733932" lon="126.86821991">
    <name>갈산 위치번호 4-3</name>
  </wpt>
  <wpt lat="37.50753899" lon="126.86817851">
    <name>갈산공원 1-19</name>
  </wpt>
  <wpt lat="37.507652" lon="126.868483">
    <name>갈산공원 1-18</name>
  </wpt>
  <wpt lat="37.50781469" lon="126.86869185">
    <name>갈산공원 1-17</name>
  </wpt>
  <wpt lat="37.50795656" lon="126.86865808">
    <name>갈산공원 1-1</name>
  </wpt>
  <wpt lat="37.50803348" lon="126.86878437">
    <name>갈산공원 1-2</name>
  </wpt>
  <wpt lat="37.50808234" lon="126.86881126">
    <name>갈산공원 1-3</name>
  </wpt>
  <wpt lat="37.50813229" lon="126.86887843">
    <name>갈산공원 1-5</name>
  </wpt>
  <wpt lat="37.50823333" lon="126.86903395">
    <name>갈산공원 1-7</name>
  </wpt>
  <wpt lat="37.50834272" lon="126.86922366">
    <name>갈산공원 1-9</name>
  </wpt>
  <wpt lat="37.50843123" lon="126.86939681">
    <name>갈산공원 1-13</name>
  </wpt>
  <trk>
    <name>Track 2026-03-31 13:35</name>
    <trkseg>
      <trkpt lat="37.506484993051075" lon="126.8678651478811">
      </trkpt>
      <trkpt lat="37.50650338416892" lon="126.86788673253147">
      </trkpt>
      <trkpt lat="37.50650338416892" lon="126.86788673253147">
      </trkpt>
      <trkpt lat="37.506625472494775" lon="126.86801780725185">
      </trkpt>
      <trkpt lat="37.506625472494775" lon="126.86801780725185">
      </trkpt>
      <trkpt lat="37.5066587" lon="126.8680387">
      </trkpt>
      <trkpt lat="37.5067446" lon="126.8680944">
      </trkpt>
      <trkpt lat="37.5068318" lon="126.8681445">
      </trkpt>
      <trkpt lat="37.5069204" lon="126.8681864">
      </trkpt>
      <trkpt lat="37.5070047" lon="126.8682287">
      </trkpt>
      <trkpt lat="37.5070961" lon="126.8682508">
      </trkpt>
      <trkpt lat="37.5071837" lon="126.8682786">
      </trkpt>
      <trkpt lat="37.5072822" lon="126.8682425">
      </trkpt>
      <trkpt lat="37.5073689" lon="126.8682049">
      </trkpt>
      <trkpt lat="37.5074487" lon="126.8681427">
      </trkpt>
      <trkpt lat="37.5075354" lon="126.86818">
      </trkpt>
      <trkpt lat="37.5076203" lon="126.8682315">
      </trkpt>
      <trkpt lat="37.507643" lon="126.8683465">
      </trkpt>
      <trkpt lat="37.5076577" lon="126.868465">
      </trkpt>
      <trkpt lat="37.5076587295909" lon="126.86846973938667">
      </trkpt>
      <trkpt lat="37.5076829" lon="126.868581">
      </trkpt>
      <trkpt lat="37.5077595" lon="126.8686478">
      </trkpt>
      <trkpt lat="37.5078414" lon="126.8687002">
      </trkpt>
      <trkpt lat="37.5079346" lon="126.868665">
      </trkpt>
      <trkpt lat="37.5080083" lon="126.8687394">
      </trkpt>
      <trkpt lat="37.5080832" lon="126.8688048">
      </trkpt>
      <trkpt lat="37.5081421" lon="126.868895">
      </trkpt>
      <trkpt lat="37.5081995" lon="126.8689838">
      </trkpt>
      <trkpt lat="37.5082554" lon="126.869075">
      </trkpt>
      <trkpt lat="37.5083088" lon="126.8691805">
      </trkpt>
      <trkpt lat="37.5083607" lon="126.8692813">
      </trkpt>
      <trkpt lat="37.5084132" lon="126.8693736">
      </trkpt>
    </trkseg>
  </trk>

<metadata>
  <name>Track_2026-03-30_1358</name>
</metadata>
 <wpt lat="37.50864536" lon="126.8692796">
    <name>갈산공원 1-12</name>
  </wpt>
  <wpt lat="37.50816273" lon="126.8693843">
    <name>갈산공원 1-14</name>
  </wpt>
  <wpt lat="37.50800828493681" lon="126.86928558896159">
    <name>갈산공원 1-15</name>
  </wpt>
  <wpt lat="37.507918" lon="126.869038">
    <name>갈산공원 1-16</name>
  </wpt>
  <trk>
    <name>Track 2026-03-31 13:58</name>
    <trkseg>
      <trkpt lat="37.5086458" lon="126.869283">
      </trkpt>
      <trkpt lat="37.5085892" lon="126.8693749">
      </trkpt>
      <trkpt lat="37.5084982" lon="126.8693797">
      </trkpt>
      <trkpt lat="37.5084033" lon="126.8693933">
      </trkpt>
      <trkpt lat="37.5083129" lon="126.8693599">
      </trkpt>
      <trkpt lat="37.5082233" lon="126.869395">
      </trkpt>
      <trkpt lat="37.50822038622003" lon="126.86939383707228">
      </trkpt>
      <trkpt lat="37.50822038622003" lon="126.86939383707228">
      </trkpt>
      <trkpt lat="37.50813351449716" lon="126.86937835694158">
      </trkpt>
      <trkpt lat="37.50813351449716" lon="126.86937835694158">
      </trkpt>
      <trkpt lat="37.508006767373004" lon="126.86929898013636">
      </trkpt>
      <trkpt lat="37.508006767373004" lon="126.86929898013636">
      </trkpt>
      <trkpt lat="37.508006767373004" lon="126.86929898013636">
      </trkpt>
      <trkpt lat="37.50791847034324" lon="126.86906019569989">
      </trkpt>
      <trkpt lat="37.50791847034324" lon="126.86906019569989">
      </trkpt>
      <trkpt lat="37.507865674977296" lon="126.8688459238428">
      </trkpt>
      <trkpt lat="37.507865674977296" lon="126.8688459238428">
      </trkpt>
      <trkpt lat="37.507865674977296" lon="126.8688459238428">
      </trkpt>
      <trkpt lat="37.50784120881923" lon="126.86885728674457">
      </trkpt>
      <trkpt lat="37.50784120881923" lon="126.86885728674457">
      </trkpt>
      <trkpt lat="37.50789142881888" lon="126.86909266113258">
      </trkpt>
      <trkpt lat="37.50789142881888" lon="126.86909266113258">
      </trkpt>
      <trkpt lat="37.507908168811426" lon="126.86947088342595">
      </trkpt>
      <trkpt lat="37.507908168811426" lon="126.86947088342595">
      </trkpt>
      <trkpt lat="37.50792362110863" lon="126.8695439306506">
      </trkpt>
      <trkpt lat="37.507900359418514" lon="126.86959352652309">
      </trkpt>
      <trkpt lat="37.507719" lon="126.8699802">
      </trkpt>
    </trkseg>
  </trk>

<metadata>
  <name>Track_2026-03-30_1409</name>
</metadata>
<wpt lat="37.507936" lon="126.869463">
    <name>갈산공원 2-24</name>
  </wpt>
  <trk>
    <name>Track 2026-03-31 14:09</name>
    <trkseg>
      <trkpt lat="37.5079261982322" lon="126.86953115379873">
      </trkpt>
      <trkpt lat="37.507934102758036" lon="126.8694815537341">
      </trkpt>
      <trkpt lat="37.507934102758036" lon="126.8694815537341">
      </trkpt>
      <trkpt lat="37.507934102758036" lon="126.8694815537341">
      </trkpt>
      <trkpt lat="37.50793248377127" lon="126.86943267489335">
      </trkpt>
      <trkpt lat="37.507949383403584" lon="126.86935165296443">
      </trkpt>
      <trkpt lat="37.507949383403584" lon="126.86935165296443">
      </trkpt>
      <trkpt lat="37.507949383403584" lon="126.86935165296443">
      </trkpt>
      <trkpt lat="37.508002973505896" lon="126.86930184968247">
      </trkpt>
    </trkseg>
  </trk>

<metadata>
  <name>Track_2026-03-30_1423</name>
</metadata>
 <wpt lat="37.508677" lon="126.869315">
    <name>갈산공원 2-23</name>
  </wpt>
  <wpt lat="37.50875133" lon="126.8694019">
    <name>갈산공원 2-22</name>
  </wpt>
  <wpt lat="37.50894203" lon="126.86941671">
    <name>갈산공원 2-21</name>
  </wpt>
  <wpt lat="37.50883207" lon="126.86955659">
    <name>갈산공원 2-18</name>
  </wpt>
  <wpt lat="37.50850763222631" lon="126.86970163549813">
    <name>갈산공원 2-19</name>
  </wpt>
  <trk>
    <name>Track 2026-03-31 14:23</name>
    <trkseg>
      <trkpt lat="37.5086255185994" lon="126.86941276981963">
      </trkpt>
      <trkpt lat="37.508718867437594" lon="126.86941887584157">
      </trkpt>
      <trkpt lat="37.508718867437594" lon="126.86941887584157">
      </trkpt>
      <trkpt lat="37.50873757781844" lon="126.86941471838244">
      </trkpt>
      <trkpt lat="37.50873757781844" lon="126.86941471838244">
      </trkpt>
      <trkpt lat="37.50873757781844" lon="126.86941471838244">
      </trkpt>
      <trkpt lat="37.508933240527014" lon="126.86941380084977">
      </trkpt>
      <trkpt lat="37.508933240527014" lon="126.86941380084977">
      </trkpt>
      <trkpt lat="37.50893726630683" lon="126.86944932579195">
      </trkpt>
      <trkpt lat="37.50893726630683" lon="126.86944932579195">
      </trkpt>
      <trkpt lat="37.508866815128556" lon="126.86953052566099">
      </trkpt>
      <trkpt lat="37.5085333" lon="126.8696658">
      </trkpt>
      <trkpt lat="37.5085333" lon="126.8696658">
      </trkpt>
      <trkpt lat="37.5084862" lon="126.8697666">
      </trkpt>
      <trkpt lat="37.5084824" lon="126.8698825">
      </trkpt>
      <trkpt lat="37.50844662138191" lon="126.8699691845379">
      </trkpt>
      <trkpt lat="37.50844662138191" lon="126.8699691845379">
      </trkpt>
      <trkpt lat="37.50842385526016" lon="126.87002422084146">
      </trkpt>
    </trkseg>
  </trk>

<metadata>
  <name>Track_2026-03-30_1434</name>
</metadata>
<wpt lat="37.508496494114624" lon="126.86973303864477">
    <name>갈산공원 5-21</name>
  </wpt>
  <wpt lat="37.50830059" lon="126.86966025">
    <name>갈산공원 5-22</name>
  </wpt>
  <wpt lat="37.50789735" lon="126.86952983">
    <name>갈산공원 5-23</name>
  </wpt>
  <wpt lat="37.50788221" lon="126.86935921">
    <name>갈산공원 5-24</name>
  </wpt>
  <wpt lat="37.50780211" lon="126.86906866">
    <name>갈산공원 5-25</name>
  </wpt>
  <wpt lat="37.50761411" lon="126.86867678">
    <name>갈산공원 5-27</name>
  </wpt>
  <wpt lat="37.50761111" lon="126.86847326">
    <name>갈산공원 5-28</name>
  </wpt>
  <wpt lat="37.50751152" lon="126.86871629">
    <name>갈산공원 5-29</name>
  </wpt>
  <wpt lat="37.50743403" lon="126.86892411">
    <name>갈산공원 5-30</name>
  </wpt>
  <wpt lat="37.50743434" lon="126.86863042">
    <name>갈산공원 5-31</name>
  </wpt>
  <wpt lat="37.50742329" lon="126.8683123">
    <name>갈산공원 5-32</name>
  </wpt>
  <wpt lat="37.507701" lon="126.868894">
    <name>갈산공원 5-26</name>
  </wpt>
  <trk>
    <name>Track 2026-03-31 14:34</name>
    <trkseg>
      <trkpt lat="37.50850168036776" lon="126.86973152988338">
      </trkpt>
      <trkpt lat="37.5084871371096" lon="126.86972947899982">
      </trkpt>
      <trkpt lat="37.5084871371096" lon="126.86972947899982">
      </trkpt>
      <trkpt lat="37.508417679525536" lon="126.86971146536312">
      </trkpt>
      <trkpt lat="37.508417679525536" lon="126.86971146536312">
      </trkpt>
      <trkpt lat="37.508286688664185" lon="126.86964849498042">
      </trkpt>
      <trkpt lat="37.508286688664185" lon="126.86964849498042">
      </trkpt>
      <trkpt lat="37.50796183667238" lon="126.86955389026775">
      </trkpt>
      <trkpt lat="37.50796183667238" lon="126.86955389026775">
      </trkpt>
      <trkpt lat="37.50789521949578" lon="126.86951021288144">
      </trkpt>
      <trkpt lat="37.50787950589611" lon="126.86933532796871">
      </trkpt>
      <trkpt lat="37.50787950589611" lon="126.86933532796871">
      </trkpt>
      <trkpt lat="37.50787001672105" lon="126.86931719007242">
      </trkpt>
      <trkpt lat="37.50787001672105" lon="126.86931719007242">
      </trkpt>
      <trkpt lat="37.5078625" lon="126.869286">
      </trkpt>
      <trkpt lat="37.507825" lon="126.8691794">
      </trkpt>
      <trkpt lat="37.5078021" lon="126.8690686">
      </trkpt>
      <trkpt lat="37.507775" lon="126.8689575">
      </trkpt>
      <trkpt lat="37.5076978" lon="126.868899">
      </trkpt>
      <trkpt lat="37.5076372" lon="126.8688091">
      </trkpt>
      <trkpt lat="37.507613" lon="126.8686902">
      </trkpt>
      <trkpt lat="37.50761214569605" lon="126.86865886633586">
      </trkpt>
      <trkpt lat="37.50761214569605" lon="126.86865886633586">
      </trkpt>
      <trkpt lat="37.50762537139772" lon="126.86849154266417">
      </trkpt>
      <trkpt lat="37.50762537139772" lon="126.86849154266417">
      </trkpt>
      <trkpt lat="37.50760734364465" lon="126.86848017976234">
      </trkpt>
      <trkpt lat="37.50756862561701" lon="126.86861150152019">
      </trkpt>
      <trkpt lat="37.50756862561701" lon="126.86861150152019">
      </trkpt>
      <trkpt lat="37.50756862561701" lon="126.86861150152019">
      </trkpt>
      <trkpt lat="37.50745072239842" lon="126.86891789595751">
      </trkpt>
      <trkpt lat="37.50745072239842" lon="126.86891789595751">
      </trkpt>
      <trkpt lat="37.507426249691264" lon="126.86891956353878">
      </trkpt>
      <trkpt lat="37.507426249691264" lon="126.86891956353878">
      </trkpt>
      <trkpt lat="37.50743021823844" lon="126.86867693052102">
      </trkpt>
      <trkpt lat="37.50743286393667" lon="126.8686235679321">
      </trkpt>
      <trkpt lat="37.50743286393667" lon="126.8686235679321">
      </trkpt>
      <trkpt lat="37.50743286393667" lon="126.8686235679321">
      </trkpt>
      <trkpt lat="37.50742191520777" lon="126.8683129829804">
      </trkpt>
      <trkpt lat="37.50742191520777" lon="126.8683129829804">
      </trkpt>
      <trkpt lat="37.5074025" lon="126.868294">
      </trkpt>
      <trkpt lat="37.5074025" lon="126.868294">
      </trkpt>
      <trkpt lat="37.5074025" lon="126.868294">
      </trkpt>
      <trkpt lat="37.50729541160925" lon="126.86825041046745">
      </trkpt>
      <trkpt lat="37.50729541160925" lon="126.86825041046745">
      </trkpt>
      <trkpt lat="37.50725866637025" lon="126.86828681104674">
      </trkpt>
      <trkpt lat="37.50725866637025" lon="126.86828681104674">
      </trkpt>
      <trkpt lat="37.507197244387655" lon="126.86836671037076">
      </trkpt>
      <trkpt lat="37.507197244387655" lon="126.86836671037076">
      </trkpt>
      <trkpt lat="37.507037912213306" lon="126.86851276204521">
      </trkpt>
    </trkseg>
  </trk>

<metadata>
  <name>Track_2026-03-30_1456</name>
</metadata>
 <wpt lat="37.50657398" lon="126.86782015">
    <name>갈산공원 1-23</name>
  </wpt>
  <wpt lat="37.5068371" lon="126.86782239">
    <name>갈산공원 1-24</name>
  </wpt>
  <wpt lat="37.50709864" lon="126.86801949">
    <name>갈산공원 1-25</name>
  </wpt>
  <wpt lat="37.50718518" lon="126.86814524">
    <name>갈산공원 1-26</name>
  </wpt>
  <trk>
    <name>Track 2026-03-31 14:56</name>
    <trkseg>
      <trkpt lat="37.506480879149194" lon="126.8678435058024">
      </trkpt>
      <trkpt lat="37.506534873814196" lon="126.8678317426024">
      </trkpt>
      <trkpt lat="37.506534873814196" lon="126.8678317426024">
      </trkpt>
      <trkpt lat="37.5065933" lon="126.8678043">
      </trkpt>
      <trkpt lat="37.5066774" lon="126.8678456">
      </trkpt>
      <trkpt lat="37.5067759" lon="126.8678203">
      </trkpt>
      <trkpt lat="37.5068727" lon="126.8678291">
      </trkpt>
      <trkpt lat="37.506971" lon="126.8678345">
      </trkpt>
      <trkpt lat="37.5070436" lon="126.8679191">
      </trkpt>
      <trkpt lat="37.5070939" lon="126.8680157">
      </trkpt>
      <trkpt lat="37.5071464" lon="126.868108">
      </trkpt>
      <trkpt lat="37.5072229" lon="126.868178">
      </trkpt>
      <trkpt lat="37.5073098" lon="126.8682215">
      </trkpt>
    </trkseg>
  </trk>

<metadata>
  <name>Track_2026-03-30_1510</name>
</metadata>
<wpt lat="37.50675218" lon="126.86759335">
    <name>갈산공원 1-29</name>
  </wpt>
  <wpt lat="37.50698288" lon="126.86734745">
    <name>갈산공원 1-28</name>
  </wpt>
  <wpt lat="37.50704275" lon="126.86763373">
    <name>갈산공원 1-27</name>
  </wpt>
  <trk>
    <name>Track 2026-03-31 15:10</name>
    <trkseg>
      <trkpt lat="37.5068703" lon="126.8678313">
      </trkpt>
      <trkpt lat="37.5068197" lon="126.8677266">
      </trkpt>
      <trkpt lat="37.5067619" lon="126.8676382">
      </trkpt>
      <trkpt lat="37.5067669" lon="126.8675193">
      </trkpt>
      <trkpt lat="37.5067467" lon="126.8673979">
      </trkpt>
      <trkpt lat="37.5067742" lon="126.8672828">
      </trkpt>
      <trkpt lat="37.5068125" lon="126.8673876">
      </trkpt>
      <trkpt lat="37.5069025" lon="126.8673485">
      </trkpt>
      <trkpt lat="37.506996" lon="126.8673592">
      </trkpt>
      <trkpt lat="37.5070808" lon="126.8674184">
      </trkpt>
      <trkpt lat="37.5070776" lon="126.8675358">
      </trkpt>
      <trkpt lat="37.5070403" lon="126.8676433">
      </trkpt>
      <trkpt lat="37.5070577" lon="126.8677574">
      </trkpt>
      <trkpt lat="37.5070804" lon="126.8678763">
      </trkpt>
      <trkpt lat="37.507084" lon="126.8679953">
      </trkpt>
    </trkseg>
  </trk>

<metadata>
  <name>Track_2026-03-30_1521</name>
</metadata>
 <trk>
    <name>Track 2026-03-31 15:21</name>
    <trkseg>
      <trkpt lat="37.5076455" lon="126.8683782">
      </trkpt>
    </trkseg>
  </trk>

<metadata>
  <name>Track_2026-03-30_1526</name>
</metadata>
<wpt lat="37.508669560150935" lon="126.86984418350659">
    <name>갈산공원 5-20</name>
  </wpt>
  <wpt lat="37.50886325104736" lon="126.869988910139">
    <name>갈산공원 5-19</name>
  </wpt>
  <wpt lat="37.50901365" lon="126.87012026">
    <name>갈산공원 5-18</name>
  </wpt>
  <wpt lat="37.50920208340219" lon="126.87023691306291">
    <name>갈산공원 5-17</name>
  </wpt>
  <wpt lat="37.509318509632706" lon="126.87035084703655">
    <name>갈산공원 5-16</name>
  </wpt>
  <wpt lat="37.50956011" lon="126.8705077">
    <name>갈산공원 5-15</name>
  </wpt>
  <wpt lat="37.509799" lon="126.870686">
    <name>갈산공원 5-14</name>
  </wpt>
  <trk>
    <name>Track 2026-03-31 15:26</name>
    <trkseg>
      <trkpt lat="37.508500376709435" lon="126.8697320371025">
      </trkpt>
      <trkpt lat="37.50888942624217" lon="126.8700162649943">
      </trkpt>
      <trkpt lat="37.509278475774906" lon="126.87030049288612">
      </trkpt>
      <trkpt lat="37.50966752530764" lon="126.87058472077793">
      </trkpt>
      <trkpt lat="37.5097366149631" lon="126.87063519560303">
      </trkpt>
      <trkpt lat="37.5097366149631" lon="126.87063519560303">
      </trkpt>
      <trkpt lat="37.5097366149631" lon="126.87063519560303">
      </trkpt>
      <trkpt lat="37.50988867498788" lon="126.87072549710507">
      </trkpt>
    </trkseg>
  </trk>

<metadata>
  <name>Track_2026-03-30_New file 1</name>
</metadata>
<trk>
    <name>New file 1</name>
    <trkseg>
      <trkpt lat="37.50680063010384" lon="126.86852322968696">
      </trkpt>
      <trkpt lat="37.50686495336794" lon="126.86844755024043">
      </trkpt>
      <trkpt lat="37.50695286173881" lon="126.86842863037913">
      </trkpt>
      <trkpt lat="37.50702147307851" lon="126.86847457861387">
      </trkpt>
      <trkpt lat="37.50706649923565" lon="126.86856647508341">
      </trkpt>
      <trkpt lat="37.5070514905196" lon="126.86866107439124">
      </trkpt>
      <trkpt lat="37.50702790538848" lon="126.86874215951167">
      </trkpt>
      <trkpt lat="37.506972158684306" lon="126.8687935134202">
      </trkpt>
      <trkpt lat="37.50689282676467" lon="126.86879621625854">
      </trkpt>
      <trkpt lat="37.50681778297978" lon="126.86875837653457">
      </trkpt>
      <trkpt lat="37.506789909554456" lon="126.8687097254629">
      </trkpt>
      <trkpt lat="37.50675989200815" lon="126.86863945169165">
      </trkpt>
      <trkpt lat="37.506787765444145" lon="126.86851512117482">
      </trkpt>
    </trkseg>
  </trk>

<metadata>
  <name>Track_2026-03-30_New file 3</name>
</metadata>
<trk>
    <name>New file 3</name>
    <trkseg>
      <trkpt lat="37.5069657263695" lon="126.86880162193239">
      </trkpt>
      <trkpt lat="37.506997887937345" lon="126.86910163687747">
      </trkpt>
      <trkpt lat="37.507132966371046" lon="126.86924488725697">
      </trkpt>
      <trkpt lat="37.50727018865575" lon="126.86931245818994">
      </trkpt>
      <trkpt lat="37.50740525229196" lon="126.86937946896848">
      </trkpt>
      <trkpt lat="37.50763148013026" lon="126.86962862856228">
      </trkpt>
      <trkpt lat="37.50780293656126" lon="126.8698177496982">
      </trkpt>
      <trkpt lat="37.50789342729716" lon="126.86987178430826">
      </trkpt>
      <trkpt lat="37.508031544523945" lon="126.86991681315129">
      </trkpt>
      <trkpt lat="37.508031544523945" lon="126.86991681315129">
      </trkpt>
      <trkpt lat="37.50827907118956" lon="126.87000504312567">
      </trkpt>
      <trkpt lat="37.50835039544624" lon="126.87000334666749">
      </trkpt>
      <trkpt lat="37.50835039544624" lon="126.87000334666749">
      </trkpt>
      <trkpt lat="37.50863691819366" lon="126.870084920833">
      </trkpt>
      <trkpt lat="37.50863691819366" lon="126.870084920833">
      </trkpt>
      <trkpt lat="37.508996669454504" lon="126.8703311332215">
      </trkpt>
      <trkpt lat="37.50940863244786" lon="126.87055627762021">
      </trkpt>
      <trkpt lat="37.50965879109596" lon="126.87070410198437">
      </trkpt>
      <trkpt lat="37.50965879109596" lon="126.87070410198437">
      </trkpt>
      <trkpt lat="37.509796281542506" lon="126.87076523341807">
      </trkpt>
      <trkpt lat="37.510001974052585" lon="126.87086832732854">
      </trkpt>
      <trkpt lat="37.510001974052585" lon="126.87086832732854">
      </trkpt>
      <trkpt lat="37.51009575873857" lon="126.87065578095184">
      </trkpt>
    </trkseg>
  </trk>

<metadata>
  <name>Track_2026-03-30_New file 5</name>
</metadata>
  <trk>
    <name>New file 5</name>
    <trkseg>
      <trkpt lat="37.51059890780046" lon="126.87049370614557">
      </trkpt>
      <trkpt lat="37.51053146759375" lon="126.87066507166242">
      </trkpt>
      <trkpt lat="37.5102711899748" lon="126.87057606786658">
      </trkpt>
      <trkpt lat="37.51024589979346" lon="126.87057341103736">
      </trkpt>
      <trkpt lat="37.510099427324405" lon="126.87065311592914">
      </trkpt>
    </trkseg>
  </trk>

<metadata>
  <name>Track_2026-03-30_New file 13</name>
</metadata>
<trk>
    <name>New file 13</name>
    <trkseg>
      <trkpt lat="37.509891188374084" lon="126.87072866557952">
      </trkpt>
      <trkpt lat="37.50987233797504" lon="126.8707983720011">
      </trkpt>
    </trkseg>
  </trk>

<metadata>
  <name>Track_2026-03-30_New file 14</name>
</metadata>
 <trk>
    <name>New file 14</name>
    <trkseg>
      <trkpt lat="37.5086255185994" lon="126.86941150107208">
      </trkpt>
      <trkpt lat="37.50871408607033" lon="126.86927574504159">
      </trkpt>
    </trkseg>
  </trk>

<metadata>
  <name>Track_2026-03-30_New file 18</name>
</metadata>
<trk>
    <name>New file 18</name>
    <trkseg>
      <trkpt lat="37.50779492604744" lon="126.86978844887318"/>
    </trkseg>
  </trk>

<metadata>
  <name>Track_2026-03-30_New file 21</name>
</metadata>
 <trk>
    <name>New file 21</name>
    <trkseg>
      <trkpt lat="37.50762749677162" lon="126.86849160198778">
      </trkpt>
      <trkpt lat="37.50765582914195" lon="126.86847032447452">
      </trkpt>
    </trkseg>
  </trk>

<metadata>
  <name>Track_2026-03-30_New file 22</name>
</metadata>
 <trk>
    <name>New file 22</name>
    <trkseg>
      <trkpt lat="37.50785913488386" lon="126.86884752093476">
      </trkpt>
      <trkpt lat="37.507872592371655" lon="126.8686880538886">
      </trkpt>
    </trkseg>
  </trk>

<metadata>
  <name>Track_2026-03-30_New file 23</name>
</metadata>
<wpt lat="37.50796" lon="126.868898">
    <name>갈산공원 1-4</name>
  </wpt>
  <wpt lat="37.508029" lon="126.869035">
    <name>갈산공원 1-6</name>
  </wpt>
  <wpt lat="37.508093" lon="126.869189">
    <name>갈산공원 1-8</name>
  </wpt>

<metadata>
  <name>Track_2026-03-30_New file 25</name>
</metadata>
 <wpt lat="37.509156" lon="126.869566">
    <ele>29.35400362850566</ele>
    <name>갈산공원 2-16</name>
  </wpt>
  <wpt lat="37.509027" lon="126.869604">
    <ele>32.307669277997654</ele>
    <name>갈산공원 2-17</name>
  </wpt>
  <wpt lat="37.509365" lon="126.869717">
    <ele>27.438986644844633</ele>
    <name>갈산공원 2-15</name>
  </wpt>
  <wpt lat="37.509266" lon="126.870014">
    <ele>33.32976285430436</ele>
    <name>갈산공원 2-14</name>
  </wpt>
  <wpt lat="37.509896" lon="126.870057">
    <ele>23.550572933257715</ele>
    <name>갈산공원 2-8</name>
  </wpt>
  <wpt lat="37.510037" lon="126.870284">
    <ele>23.56822898651589</ele>
    <name>갈산공원 2-7</name>
  </wpt>
  <wpt lat="37.509626" lon="126.870084">
    <ele>26.226508208528177</ele>
    <name>갈산공원 2-11</name>
  </wpt>
  <wpt lat="0" lon="0">
    <ele>0</ele>
  </wpt>
  <wpt lat="37.50975" lon="126.87036">
    <ele>28.443456000462902</ele>
    <name>갈산공원 2-10</name>
  </wpt>
  <wpt lat="37.509464" lon="126.870143">
    <ele>29.911306497132678</ele>
    <name>갈산공원 2-13</name>
  </wpt>
  <wpt lat="37.509539" lon="126.869825">
    <ele>26.145956422472317</ele>
    <name>갈산공원 2-12</name>
  </wpt>
  <trk>
    <name>New file 25</name>
    <trkseg>
      <trkpt lat="37.508935467464" lon="126.86945285686778">
        <ele>30.293434372360633</ele>
      </trkpt>
      <trkpt lat="37.50902866598801" lon="126.86949283937852">
        <ele>30.07474158956206</ele>
      </trkpt>
      <trkpt lat="37.50902866598801" lon="126.86949283937852">
        <ele>29.897664338642148</ele>
      </trkpt>
      <trkpt lat="37.50925092515908" lon="126.8696591285198">
        <ele>28.70346251545049</ele>
      </trkpt>
      <trkpt lat="37.509223165567406" lon="126.86972161875053">
        <ele>29.895076408831773</ele>
      </trkpt>
      <trkpt lat="37.5093064443119" lon="126.86978660859029">
        <ele>28.94861078381368</ele>
      </trkpt>
      <trkpt lat="37.509350066474184" lon="126.86970912070387">
        <ele>27.57646171249271</ele>
      </trkpt>
      <trkpt lat="37.509748660883005" lon="126.8699714927875">
        <ele>24.490760070505853</ele>
      </trkpt>
      <trkpt lat="37.50997663654323" lon="126.8701215562296">
        <ele>23.053707787329333</ele>
      </trkpt>
      <trkpt lat="37.51009163933844" lon="126.87033652262295">
        <ele>23.168588037366295</ele>
      </trkpt>
      <trkpt lat="37.510252246393634" lon="126.870568986281">
        <ele>22.452549509751243</ele>
      </trkpt>
    </trkseg>
  </trk>

<metadata>
  <name>Track_2026-03-30_New file 27</name>
</metadata>
 <trk>
    <name>New file 27</name>
    <trkseg>
      <trkpt lat="37.50962945683909" lon="126.86988778887286"/>
    </trkseg>
  </trk>

<metadata>
  <name>Track_2026-03-30_New file 28</name>
</metadata>
<trk>
    <name>New file 28</name>
    <trkseg>
      <trkpt lat="37.509209098332406" lon="126.86962532990452"/>
    </trkseg>
  </trk>

<metadata>
  <name>Track_2026-03-30_New file 29</name>
</metadata>
<trk>
    <name>New file 29</name>
    <trkseg>
      <trkpt lat="37.5092408235854" lon="126.8696478263875"/>
    </trkseg>
  </trk>

<metadata>
  <name>Track_2026-03-30_New file 35</name>
</metadata>
 <trk>
    <name>New file 35</name>
    <trkseg>
      <trkpt lat="37.50920272563134" lon="126.87067438369138">
      </trkpt>
      <trkpt lat="37.50920824033119" lon="126.87069292231661">
      </trkpt>
    </trkseg>
  </trk>

<metadata>
  <name>Track_2026-03-30_New file 36</name>
</metadata>
 <trk>
    <name>New file 36</name>
    <trkseg>
      <trkpt lat="37.50581833057137" lon="126.86920967053021"/>
    </trkseg>
  </trk>

<metadata>
  <name>Track_2026-03-30_New file 38</name>
</metadata>
 <trk>
    <name>New file 38</name>
    <trkseg>
      <trkpt lat="37.505747118995984" lon="126.86924687623565">
      </trkpt>
      <trkpt lat="37.50573318563387" lon="126.86925092945893">
      </trkpt>
      <trkpt lat="37.50568786037638" lon="126.86919344025932">
      </trkpt>
    </trkseg>
  </trk>

<metadata>
  <name>Track_2026-03-30_New file 41</name>
</metadata>
 <trk>
    <name>New file 41</name>
    <trkseg>
      <trkpt lat="37.50549031818744" lon="126.86705810218393">
      </trkpt>
      <trkpt lat="37.5054388165961" lon="126.86716089390569">
      </trkpt>
      <trkpt lat="37.5054388165961" lon="126.86716089390569">
      </trkpt>
      <trkpt lat="37.505561634521314" lon="126.86730753457817">
      </trkpt>
    </trkseg>
  </trk>



  <!-- 진입기준점: 각 trk의 시작/끝 좌표 (도로 진입 기준점 산정용, 추후 도로 미시작 wpt는 삭제 예정) -->
  <wpt lat="37.51062806733442" lon="126.8705027318806">
    <name>[진입기준점] T01-시작</name>
    <sym>진입기준점</sym>
  </wpt>
  <wpt lat="37.505290153302155" lon="126.86695370617474">
    <name>[진입기준점] T01-끝</name>
    <sym>진입기준점</sym>
  </wpt>
  <wpt lat="37.50520347099051" lon="126.86744067837986">
    <name>[진입기준점] T02-시작</name>
    <sym>진입기준점</sym>
  </wpt>
  <wpt lat="37.505340787025204" lon="126.86678648699785">
    <name>[진입기준점] T09-시작</name>
    <sym>진입기준점</sym>
  </wpt>
  <wpt lat="37.5086458" lon="126.869283">
    <name>[진입기준점] T18-시작</name>
    <sym>진입기준점</sym>
  </wpt>
  <wpt lat="37.51059890780046" lon="126.87049370614557">
    <name>[진입기준점] T28-시작</name>
    <sym>진입기준점</sym>
  </wpt>
  <wpt lat="37.50871408607033" lon="126.86927574504159">
    <name>[진입기준점] T30-끝</name>
    <sym>진입기준점</sym>
  </wpt>
  <wpt lat="37.5092408235854" lon="126.8696478263875">
    <name>[진입기준점] T37-단일점</name>
    <sym>진입기준점</sym>
  </wpt>
</gpx>

  
